start=new Date('2021-12-14T00:00:00.000Z').valueOf();
sats=[{"NORAD_CAT_ID":"48315","CENTER_NAME":"EARTH","DECAY_DATE":null,"SEMIMAJOR_AXIS":"6925.383","LAUNCH_DATE":"2021-04-29","REF_FRAME":"TEME","FILE":"3239585","BSTAR":"0.00005531500000","REV_AT_EPOCH":"3502","RCS_SIZE":"LARGE","MEAN_MOTION":"15.06388668","OBJECT_TYPE":"PAYLOAD","TLE_LINE2":"2 48315  53.0546 195.6015 0002608  80.5303 279.5980 15.06388668 35029","MEAN_ELEMENT_THEORY":"SGP4","MEAN_ANOMALY":"279.5980","OBJECT_NAME":"STARLINK-2506","MEAN_MOTION_DDOT":"0.0000000000000","ARG_OF_PERICENTER":"80.5303","RA_OF_ASC_NODE":"195.6015","EPHEMERIS_TYPE":"0","ELEMENT_SET_NO":"999","TLE_LINE1":"1 48315U 21036AR  21347.86322921  .00000542  00000-0  55315-4 0  9997","COUNTRY_CODE":"US","TIME_SYSTEM":"UTC","OBJECT_ID":"2021-036AR","GP_ID":"191660600","EPOCH":"2021-12-13T20:43:03.003744","MEAN_MOTION_DOT":"0.00000542","PERIOD":"95.593","ECCENTRICITY":"0.00026080","PERIAPSIS":"545.442","APOAPSIS":"549.054","CLASSIFICATION_TYPE":"U","INCLINATION":"53.0546","SITE":"AFETR"},{"MEAN_MOTION":"15.06391384","OBJECT_TYPE":"PAYLOAD","TLE_LINE2":"2 48316  53.0543 195.6210 0002314  79.1663 280.9586 15.06391384 35028","RCS_SIZE":"LARGE","REV_AT_EPOCH":"3502","BSTAR":"0.00005007900000","RA_OF_ASC_NODE":"195.6210","ARG_OF_PERICENTER":"79.1663","EPHEMERIS_TYPE":"0","MEAN_MOTION_DDOT":"0.0000000000000","OBJECT_NAME":"STARLINK-2507","MEAN_ELEMENT_THEORY":"SGP4","MEAN_ANOMALY":"280.9586","DECAY_DATE":null,"CENTER_NAME":"EARTH","NORAD_CAT_ID":"48316","FILE":"3239585","LAUNCH_DATE":"2021-04-29","REF_FRAME":"TEME","SEMIMAJOR_AXIS":"6925.375","SITE":"AFETR","INCLINATION":"53.0543","PERIAPSIS":"545.637","APOAPSIS":"548.842","CLASSIFICATION_TYPE":"U","TIME_SYSTEM":"UTC","OBJECT_ID":"2021-036AS","GP_ID":"191660353","TLE_LINE1":"1 48316U 21036AS  21347.85953913  .00000464  00000-0  50079-4 0  9993","COUNTRY_CODE":"US","ELEMENT_SET_NO":"999","ECCENTRICITY":"0.00023140","PERIOD":"95.593","EPOCH":"2021-12-13T20:37:44.180832","MEAN_MOTION_DOT":"0.00000464"},{"SEMIMAJOR_AXIS":"6925.373","LAUNCH_DATE":"2021-04-29","REF_FRAME":"TEME","FILE":"3239585","NORAD_CAT_ID":"48317","CENTER_NAME":"EARTH","DECAY_DATE":null,"MEAN_ELEMENT_THEORY":"SGP4","MEAN_ANOMALY":"283.4352","MEAN_MOTION_DDOT":"0.0000000000000","OBJECT_NAME":"STARLINK-2513","RA_OF_ASC_NODE":"195.6322","ARG_OF_PERICENTER":"76.6917","EPHEMERIS_TYPE":"0","BSTAR":"-0.00005039400000","REV_AT_EPOCH":"3502","RCS_SIZE":"LARGE","MEAN_MOTION":"15.06391883","OBJECT_TYPE":"PAYLOAD","TLE_LINE2":"2 48317  53.0541 195.6322 0002509  76.6917 283.4352 15.06391883 35024","EPOCH":"2021-12-13T20:32:24.402336","MEAN_MOTION_DOT":"-0.00001032","PERIOD":"95.593","ECCENTRICITY":"0.00025090","ELEMENT_SET_NO":"999","TLE_LINE1":"1 48317U 21036AT  21347.85583799 -.00001032  00000-0 -50394-4 0  9999","COUNTRY_CODE":"US","TIME_SYSTEM":"UTC","GP_ID":"191659599","OBJECT_ID":"2021-036AT","PERIAPSIS":"545.501","APOAPSIS":"548.976","CLASSIFICATION_TYPE":"U","INCLINATION":"53.0541","SITE":"AFETR"},{"RA_OF_ASC_NODE":"205.3548","ARG_OF_PERICENTER":"71.7566","EPHEMERIS_TYPE":"0","MEAN_ANOMALY":"288.3698","MEAN_ELEMENT_THEORY":"SGP4","OBJECT_NAME":"STARLINK-2509","MEAN_MOTION_DDOT":"0.0000000000000","REV_AT_EPOCH":"3489","RCS_SIZE":"LARGE","MEAN_MOTION":"15.06391084","TLE_LINE2":"2 48318  53.0546 205.3548 0002533  71.7566 288.3698 15.06391084 34896","OBJECT_TYPE":"PAYLOAD","BSTAR":"0.00007078900000","FILE":"3239585","SEMIMAJOR_AXIS":"6925.376","LAUNCH_DATE":"2021-04-29","REF_FRAME":"TEME","DECAY_DATE":null,"NORAD_CAT_ID":"48318","CENTER_NAME":"EARTH","SITE":"AFETR","PERIAPSIS":"545.487","APOAPSIS":"548.995","CLASSIFICATION_TYPE":"U","INCLINATION":"53.0546","PERIOD":"95.593","ECCENTRICITY":"0.00025330","EPOCH":"2021-12-13T21:56:00.179808","MEAN_MOTION_DOT":"0.00000772","TLE_LINE1":"1 48318U 21036AU  21347.91389097  .00000772  00000-0  70789-4 0  9990","COUNTRY_CODE":"US","TIME_SYSTEM":"UTC","OBJECT_ID":"2021-036AU","GP_ID":"191659850","ELEMENT_SET_NO":"999"},{"OBJECT_NAME":"STARLINK-2512","MEAN_MOTION_DDOT":"0.0000000000000","MEAN_ELEMENT_THEORY":"SGP4","MEAN_ANOMALY":"285.6765","RA_OF_ASC_NODE":"205.3758","ARG_OF_PERICENTER":"74.4518","EPHEMERIS_TYPE":"0","BSTAR":"0.00006431100000","MEAN_MOTION":"15.06394490","OBJECT_TYPE":"PAYLOAD","TLE_LINE2":"2 48319  53.0526 205.3758 0002661  74.4518 285.6765 15.06394490 34896","REV_AT_EPOCH":"3489","RCS_SIZE":"LARGE","LAUNCH_DATE":"2021-04-29","REF_FRAME":"TEME","SEMIMAJOR_AXIS":"6925.365","FILE":"3239585","CENTER_NAME":"EARTH","NORAD_CAT_ID":"48319","DECAY_DATE":null,"INCLINATION":"53.0526","PERIAPSIS":"545.388","APOAPSIS":"549.073","CLASSIFICATION_TYPE":"U","SITE":"AFETR","EPOCH":"2021-12-13T21:50:42.092160","MEAN_MOTION_DOT":"0.00000676","ECCENTRICITY":"0.00026610","PERIOD":"95.592","ELEMENT_SET_NO":"999","TIME_SYSTEM":"UTC","GP_ID":"191660101","OBJECT_ID":"2021-036AV","TLE_LINE1":"1 48319U 21036AV  21347.91020940  .00000676  00000-0  64311-4 0  9997","COUNTRY_CODE":"US"},{"EPHEMERIS_TYPE":"0","ARG_OF_PERICENTER":"72.4432","RA_OF_ASC_NODE":"205.3843","OBJECT_NAME":"STARLINK-2029","MEAN_MOTION_DDOT":"0.0000000000000","MEAN_ELEMENT_THEORY":"SGP4","MEAN_ANOMALY":"287.6835","OBJECT_TYPE":"PAYLOAD","TLE_LINE2":"2 48320  53.0534 205.3843 0002539  72.4432 287.6835 15.06393769 34897","MEAN_MOTION":"15.06393769","REV_AT_EPOCH":"3489","RCS_SIZE":"LARGE","BSTAR":"-0.00006288600000","FILE":"3239585","REF_FRAME":"TEME","LAUNCH_DATE":"2021-04-29","SEMIMAJOR_AXIS":"6925.368","DECAY_DATE":null,"CENTER_NAME":"EARTH","NORAD_CAT_ID":"48320","SITE":"AFETR","INCLINATION":"53.0534","CLASSIFICATION_TYPE":"U","PERIAPSIS":"545.474","APOAPSIS":"548.991","ECCENTRICITY":"0.00025390","PERIOD":"95.593","MEAN_MOTION_DOT":"-0.00001218","EPOCH":"2021-12-13T21:45:23.261472","OBJECT_ID":"2021-036AW","GP_ID":"191660853","TIME_SYSTEM":"UTC","COUNTRY_CODE":"US","TLE_LINE1":"1 48320U 21036AW  21347.90651923 -.00001218  00000-0 -62886-4 0  9999","ELEMENT_SET_NO":"999"},{"OBJECT_NAME":"STARLINK-2457","MEAN_MOTION_DDOT":"0.0000000000000","MEAN_ANOMALY":"286.1348","MEAN_ELEMENT_THEORY":"SGP4","EPHEMERIS_TYPE":"0","ARG_OF_PERICENTER":"73.9929","RA_OF_ASC_NODE":"205.4047","BSTAR":"0.00004460500000","TLE_LINE2":"2 48321  53.0539 205.4047 0002625  73.9929 286.1348 15.06390179 34898","OBJECT_TYPE":"PAYLOAD","MEAN_MOTION":"15.06390179","REV_AT_EPOCH":"3489","RCS_SIZE":"LARGE","REF_FRAME":"TEME","LAUNCH_DATE":"2021-04-29","SEMIMAJOR_AXIS":"6925.379","FILE":"3239585","CENTER_NAME":"EARTH","NORAD_CAT_ID":"48321","DECAY_DATE":null,"INCLINATION":"53.0539","CLASSIFICATION_TYPE":"U","PERIAPSIS":"545.426","APOAPSIS":"549.062","SITE":"AFETR","MEAN_MOTION_DOT":"0.00000382","EPOCH":"2021-12-13T21:40:05.414016","ECCENTRICITY":"0.00026250","PERIOD":"95.593","ELEMENT_SET_NO":"999","OBJECT_ID":"2021-036AX","GP_ID":"191659100","TIME_SYSTEM":"UTC","COUNTRY_CODE":"US","TLE_LINE1":"1 48321U 21036AX  21347.90284044  .00000382  00000-0  44605-4 0  9994"},{"RA_OF_ASC_NODE":"205.4184","ARG_OF_PERICENTER":"77.0240","EPHEMERIS_TYPE":"0","OBJECT_NAME":"STARLINK-2477","MEAN_MOTION_DDOT":"0.0000000000000","MEAN_ANOMALY":"283.1014","MEAN_ELEMENT_THEORY":"SGP4","MEAN_MOTION":"15.06391674","OBJECT_TYPE":"PAYLOAD","TLE_LINE2":"2 48322  53.0539 205.4184 0002377  77.0240 283.1014 15.06391674 34894","REV_AT_EPOCH":"3489","RCS_SIZE":"LARGE","BSTAR":"0.00006787700000","FILE":"3239585","LAUNCH_DATE":"2021-04-29","REF_FRAME":"TEME","SEMIMAJOR_AXIS":"6925.374","DECAY_DATE":null,"CENTER_NAME":"EARTH","NORAD_CAT_ID":"48322","SITE":"AFETR","INCLINATION":"53.0539","PERIAPSIS":"545.593","APOAPSIS":"548.885","CLASSIFICATION_TYPE":"U","ECCENTRICITY":"0.00023770","PERIOD":"95.593","EPOCH":"2021-12-13T21:34:47.396352","MEAN_MOTION_DOT":"0.00000729","TIME_SYSTEM":"UTC","OBJECT_ID":"2021-036AY","GP_ID":"191659351","TLE_LINE1":"1 48322U 21036AY  21347.89915968  .00000729  00000-0  67877-4 0  9990","COUNTRY_CODE":"US","ELEMENT_SET_NO":"999"},{"ELEMENT_SET_NO":"999","GP_ID":"191660601","OBJECT_ID":"2021-036AZ","TIME_SYSTEM":"UTC","COUNTRY_CODE":"US","TLE_LINE1":"1 48323U 21036AZ  21347.89546083 -.00001039  00000-0 -50846-4 0  9994","MEAN_MOTION_DOT":"-0.00001039","EPOCH":"2021-12-13T21:29:27.815712","ECCENTRICITY":"0.00022990","PERIOD":"95.593","INCLINATION":"53.0551","CLASSIFICATION_TYPE":"U","APOAPSIS":"548.828","PERIAPSIS":"545.644","SITE":"AFETR","CENTER_NAME":"EARTH","NORAD_CAT_ID":"48323","DECAY_DATE":null,"REF_FRAME":"TEME","LAUNCH_DATE":"2021-04-29","SEMIMAJOR_AXIS":"6925.371","FILE":"3239585","BSTAR":"-0.00005084600000","TLE_LINE2":"2 48323  53.0551 205.4497 0002299  76.9686 283.1560 15.06392770 34895","OBJECT_TYPE":"PAYLOAD","MEAN_MOTION":"15.06392770","REV_AT_EPOCH":"3489","RCS_SIZE":"LARGE","MEAN_MOTION_DDOT":"0.0000000000000","OBJECT_NAME":"STARLINK-2515","MEAN_ELEMENT_THEORY":"SGP4","MEAN_ANOMALY":"283.1560","EPHEMERIS_TYPE":"0","ARG_OF_PERICENTER":"76.9686","RA_OF_ASC_NODE":"205.4497"},{"MEAN_MOTION":"15.06395407","OBJECT_TYPE":"PAYLOAD","TLE_LINE2":"2 48324  53.0541 205.4752 0002566  78.3483 281.7794 15.06395407 34889","RCS_SIZE":"LARGE","REV_AT_EPOCH":"3488","BSTAR":"0.00009146900000","RA_OF_ASC_NODE":"205.4752","ARG_OF_PERICENTER":"78.3483","EPHEMERIS_TYPE":"0","MEAN_MOTION_DDOT":"0.0000000000000","OBJECT_NAME":"STARLINK-2527","MEAN_ANOMALY":"281.7794","MEAN_ELEMENT_THEORY":"SGP4","DECAY_DATE":null,"CENTER_NAME":"EARTH","NORAD_CAT_ID":"48324","FILE":"3239585","LAUNCH_DATE":"2021-04-29","REF_FRAME":"TEME","SEMIMAJOR_AXIS":"6925.363","SITE":"AFETR","INCLINATION":"53.0541","PERIAPSIS":"545.451","APOAPSIS":"549.005","CLASSIFICATION_TYPE":"U","TIME_SYSTEM":"UTC","OBJECT_ID":"2021-036BA","GP_ID":"191660354","TLE_LINE1":"1 48324U 21036BA  21347.89179520  .00001081  00000-0  91469-4 0  9994","COUNTRY_CODE":"US","ELEMENT_SET_NO":"999","ECCENTRICITY":"0.00025660","PERIOD":"95.592","EPOCH":"2021-12-13T21:24:11.105280","MEAN_MOTION_DOT":"0.00001081"}];
